{"type": "FeatureCollection", "features": [ {"type": "Feature", "properties": {"norad_id": 66838, "name": "STARLINK-35886", "group": "last-30-days", "lat": -52.565229537430724, "lon": 24.982828646456547, "alt_km": 414.3299793783699, "timestamp": "2025-12-20T16:47:35.024487+00:00", "meta": {"OBJECT_NAME": "STARLINK-35886", "OBJECT_ID": "2025-280T", "EPOCH": "2025-12-20T12:00:02.000160", "MEAN_MOTION": 15.52443576, "ECCENTRICITY": 0.0002785, "INCLINATION": 69.9997, "RA_OF_ASC_NODE": 177.1178, "ARG_OF_PERICENTER": 273.1455, "MEAN_ANOMALY": 288.7904, "EPHEMERIS_TYPE": 0, "CLASSIFICATION_TYPE": "U", "NORAD_CAT_ID": 66838, "ELEMENT_SET_NO": 999, "REV_AT_EPOCH": 414, "BSTAR": 0.001423, "MEAN_MOTION_DOT": 0.00088111, "MEAN_MOTION_DDOT": 0}, "tle": {"line1": "1 66838U 25280T   25354.50002315  .00088111  00000+0  14230-2 0  9993", "line2": "2 66838  69.9997 177.1178 0002785 273.1455 288.7904 15.52443576  4142"}}, "geometry": {"type": "Point", "coordinates": [24.982828646456547, -52.565229537430724]}}, {"type": "Feature", "properties": {"norad_id": 66839, "name": "STARLINK-35717", "group": "last-30-days", "lat": -50.89419242327735, "lon": 23.196292517389473, "alt_km": 413.818806330386, "timestamp": "2025-12-20T16:47:35.024500+00:00", "meta": {"OBJECT_NAME": "STARLINK-35717", "OBJECT_ID": "2025-280U", "EPOCH": "2025-12-20T12:00:02.000160", "MEAN_MOTION": 15.52489849, "ECCENTRICITY": 0.0003121, "INCLINATION": 70.0001, "RA_OF_ASC_NODE": 177.1217, "ARG_OF_PERICENTER": 262.261, "MEAN_ANOMALY": 297.6327, "EPHEMERIS_TYPE": 0, "CLASSIFICATION_TYPE": "U", "NORAD_CAT_ID": 66839, "ELEMENT_SET_NO": 999, "REV_AT_EPOCH": 414, "BSTAR": 0.0011285, "MEAN_MOTION_DOT": 0.00069798, "MEAN_MOTION_DDOT": 0}, "tle": {"line1": "1 66839U 25280U   25354.50002315  .00069798  00000+0  11285-2 0  9991", "line2": "2 66839  70.0001 177.1217 0003121 262.2610 297.6327 15.52489849  4144"}}, "geometry": {"type": "Point", "coordinates": [23.196292517389473, -50.89419242327735]}}, {"type": "Feature", "properties": {"norad_id": 66840, "name": "STARLINK-35837", "group": "last-30-days", "lat": -54.0618884993771, "lon": 26.733810506498028, "alt_km": 413.95521752889726, "timestamp": "2025-12-20T16:47:35.024510+00:00", "meta": {"OBJECT_NAME": "STARLINK-35837", "OBJECT_ID": "2025-280V", "EPOCH": "2025-12-20T12:00:02.000160", "MEAN_MOTION": 15.52489102, "ECCENTRICITY": 0.0002984, "INCLINATION": 70, "RA_OF_ASC_NODE": 177.1175, "ARG_OF_PERICENTER": 264.2051, "MEAN_ANOMALY": 299.5259, "EPHEMERIS_TYPE": 0, "CLASSIFICATION_TYPE": "U", "NORAD_CAT_ID": 66840, "ELEMENT_SET_NO": 999, "REV_AT_EPOCH": 414, "BSTAR": 0.0011205, "MEAN_MOTION_DOT": 0.00069294, "MEAN_MOTION_DDOT": 0}, "tle": {"line1": "1 66840U 25280V   25354.50002315  .00069294  00000+0  11205-2 0  9996", "line2": "2 66840  70.0000 177.1175 0002984 264.2051 299.5259 15.52489102  4142"}}, "geometry": {"type": "Point", "coordinates": [26.733810506498028, -54.0618884993771]}}, {"type": "Feature", "properties": {"norad_id": 66841, "name": "STARLINK-35715", "group": "last-30-days", "lat": -55.59938520789234, "lon": 28.70541344098794, "alt_km": 413.90017106244886, "timestamp": "2025-12-20T16:47:35.024520+00:00", "meta": {"OBJECT_NAME": "STARLINK-35715", "OBJECT_ID": "2025-280W", "EPOCH": "2025-12-20T12:00:02.000160", "MEAN_MOTION": 15.52489749, "ECCENTRICITY": 0.0003056, "INCLINATION": 69.9997, "RA_OF_ASC_NODE": 177.1153, "ARG_OF_PERICENTER": 263.1434, "MEAN_ANOMALY": 302.5014, "EPHEMERIS_TYPE": 0, "CLASSIFICATION_TYPE": "U", "NORAD_CAT_ID": 66841, "ELEMENT_SET_NO": 999, "REV_AT_EPOCH": 414, "BSTAR": 0.0011274, "MEAN_MOTION_DOT": 0.00069727, "MEAN_MOTION_DDOT": 0}, "tle": {"line1": "1 66841U 25280W   25354.50002315  .00069727  00000+0  11274-2 0  9994", "line2": "2 66841  69.9997 177.1153 0003056 263.1434 302.5014 15.52489749  4146"}}, "geometry": {"type": "Point", "coordinates": [28.70541344098794, -55.59938520789234]}}, {"type": "Feature", "properties": {"norad_id": 66842, "name": "STARLINK-35769", "group": "last-30-days", "lat": -57.11023066619646, "lon": 30.84622813979951, "alt_km": 413.9281993224886, "timestamp": "2025-12-20T16:47:35.024529+00:00", "meta": {"OBJECT_NAME": "STARLINK-35769", "OBJECT_ID": "2025-280X", "EPOCH": "2025-12-20T12:00:02.000160", "MEAN_MOTION": 15.52484947, "ECCENTRICITY": 0.0003034, "INCLINATION": 69.9999, "RA_OF_ASC_NODE": 177.1128, "ARG_OF_PERICENTER": 262.8471, "MEAN_ANOMALY": 304.7247, "EPHEMERIS_TYPE": 0, "CLASSIFICATION_TYPE": "U", "NORAD_CAT_ID": 66842, "ELEMENT_SET_NO": 999, "REV_AT_EPOCH": 414, "BSTAR": 0.0011653, "MEAN_MOTION_DOT": 0.00072085, "MEAN_MOTION_DDOT": 0}, "tle": {"line1": "1 66842U 25280X   25354.50002315  .00072085  00000+0  11653-2 0  9997", "line2": "2 66842  69.9999 177.1128 0003034 262.8471 304.7247 15.52484947  4141"}}, "geometry": {"type": "Point", "coordinates": [30.84622813979951, -57.11023066619646]}}, {"type": "Feature", "properties": {"norad_id": 66843, "name": "STARLINK-35997", "group": "last-30-days", "lat": -59.987773093272914, "lon": 35.6517328719432, "alt_km": 413.9385318712466, "timestamp": "2025-12-20T16:47:35.024541+00:00", "meta": {"OBJECT_NAME": "STARLINK-35997", "OBJECT_ID": "2025-280Y", "EPOCH": "2025-12-20T12:00:02.000160", "MEAN_MOTION": 15.52492974, "ECCENTRICITY": 0.0003027, "INCLINATION": 70.0001, "RA_OF_ASC_NODE": 177.1075, "ARG_OF_PERICENTER": 264.256, "MEAN_ANOMALY": 307.1335, "EPHEMERIS_TYPE": 0, "CLASSIFICATION_TYPE": "U", "NORAD_CAT_ID": 66843, "ELEMENT_SET_NO": 999, "REV_AT_EPOCH": 414, "BSTAR": 0.0010991, "MEAN_MOTION_DOT": 0.00067966, "MEAN_MOTION_DDOT": 0}, "tle": {"line1": "1 66843U 25280Y   25354.50002315  .00067966  00000+0  10991-2 0  9994", "line2": "2 66843  70.0001 177.1075 0003027 264.2560 307.1335 15.52492974  4141"}}, "geometry": {"type": "Point", "coordinates": [35.6517328719432, -59.987773093272914]}}, {"type": "Feature", "properties": {"norad_id": 66844, "name": "STARLINK-36073", "group": "last-30-days", "lat": -58.51199761036823, "lon": 33.051646689392086, "alt_km": 413.8217497211426, "timestamp": "2025-12-20T16:47:35.024552+00:00", "meta": {"OBJECT_NAME": "STARLINK-36073", "OBJECT_ID": "2025-280Z", "EPOCH": "2025-12-20T12:00:02.000160", "MEAN_MOTION": 15.52502268, "ECCENTRICITY": 0.0003134, "INCLINATION": 70, "RA_OF_ASC_NODE": 177.1106, "ARG_OF_PERICENTER": 262.9471, "MEAN_ANOMALY": 306.4451, "EPHEMERIS_TYPE": 0, "CLASSIFICATION_TYPE": "U", "NORAD_CAT_ID": 66844, "ELEMENT_SET_NO": 999, "REV_AT_EPOCH": 414, "BSTAR": 0.0011328, "MEAN_MOTION_DOT": 0.000701, "MEAN_MOTION_DDOT": 0}, "tle": {"line1": "1 66844U 25280Z   25354.50002315  .00070100  00000+0  11328-2 0  9994", "line2": "2 66844  70.0000 177.1106 0003134 262.9471 306.4451 15.52502268  4140"}}, "geometry": {"type": "Point", "coordinates": [33.051646689392086, -58.51199761036823]}}, {"type": "Feature", "properties": {"norad_id": 66845, "name": "STARLINK-36068", "group": "last-30-days", "lat": -63.90789975662459, "lon": 44.60559743006375, "alt_km": 413.8672263280432, "timestamp": "2025-12-20T16:47:35.024561+00:00", "meta": {"OBJECT_NAME": "STARLINK-36068", "OBJECT_ID": "2025-280AA", "EPOCH": "2025-12-20T12:00:02.000160", "MEAN_MOTION": 15.5248646, "ECCENTRICITY": 0.0003174, "INCLINATION": 70, "RA_OF_ASC_NODE": 177.1006, "ARG_OF_PERICENTER": 264.7191, "MEAN_ANOMALY": 312.4301, "EPHEMERIS_TYPE": 0, "CLASSIFICATION_TYPE": "U", "NORAD_CAT_ID": 66845, "ELEMENT_SET_NO": 999, "REV_AT_EPOCH": 414, "BSTAR": 0.0011421, "MEAN_MOTION_DOT": 0.00070641, "MEAN_MOTION_DDOT": 0}, "tle": {"line1": "1 66845U 25280AA  25354.50002315  .00070641  00000+0  11421-2 0  9999", "line2": "2 66845  70.0000 177.1006 0003174 264.7191 312.4301 15.52486460  4149"}}, "geometry": {"type": "Point", "coordinates": [44.60559743006375, -63.90789975662459]}}, {"type": "Feature", "properties": {"norad_id": 66846, "name": "STARLINK-36055", "group": "last-30-days", "lat": -61.36314294085189, "lon": 38.3967441045287, "alt_km": 413.9180392191638, "timestamp": "2025-12-20T16:47:35.024571+00:00", "meta": {"OBJECT_NAME": "STARLINK-36055", "OBJECT_ID": "2025-280AB", "EPOCH": "2025-12-20T12:00:02.000160", "MEAN_MOTION": 15.52482788, "ECCENTRICITY": 0.0003099, "INCLINATION": 69.9999, "RA_OF_ASC_NODE": 177.1052, "ARG_OF_PERICENTER": 264.1704, "MEAN_ANOMALY": 309.1526, "EPHEMERIS_TYPE": 0, "CLASSIFICATION_TYPE": "U", "NORAD_CAT_ID": 66846, "ELEMENT_SET_NO": 999, "REV_AT_EPOCH": 414, "BSTAR": 0.0011677, "MEAN_MOTION_DOT": 0.00072228, "MEAN_MOTION_DDOT": 0}, "tle": {"line1": "1 66846U 25280AB  25354.50002315  .00072228  00000+0  11677-2 0  9996", "line2": "2 66846  69.9999 177.1052 0003099 264.1704 309.1526 15.52482788  4146"}}, "geometry": {"type": "Point", "coordinates": [38.3967441045287, -61.36314294085189]}}, {"type": "Feature", "properties": {"norad_id": 66847, "name": "STARLINK-36061", "group": "last-30-days", "lat": -62.67248645088948, "lon": 41.37360940814485, "alt_km": 413.93798254755166, "timestamp": "2025-12-20T16:47:35.024584+00:00", "meta": {"OBJECT_NAME": "STARLINK-36061", "OBJECT_ID": "2025-280AC", "EPOCH": "2025-12-20T12:00:02.000160", "MEAN_MOTION": 15.52478736, "ECCENTRICITY": 0.0003092, "INCLINATION": 70, "RA_OF_ASC_NODE": 177.1025, "ARG_OF_PERICENTER": 264.9038, "MEAN_ANOMALY": 310.3399, "EPHEMERIS_TYPE": 0, "CLASSIFICATION_TYPE": "U", "NORAD_CAT_ID": 66847, "ELEMENT_SET_NO": 999, "REV_AT_EPOCH": 409, "BSTAR": 0.0012341, "MEAN_MOTION_DOT": 0.00076377, "MEAN_MOTION_DDOT": 0}, "tle": {"line1": "1 66847U 25280AC  25354.50002315  .00076377  00000+0  12341-2 0  9995", "line2": "2 66847  70.0000 177.1025 0003092 264.9038 310.3399 15.52478736  4098"}}, "geometry": {"type": "Point", "coordinates": [41.37360940814485, -62.67248645088948]}}]}